{"fetched_at":"2026-07-13T07:47:54.571Z","source":"https://celestrak.org/NORAD/elements/gp.php?GROUP=oneweb&FORMAT=JSON","constellation":"oneweb","records":[{"OBJECT_NAME":"ONEWEB-0697","OBJECT_ID":"2024-188K","EPOCH":"2026-07-12T13:19:31.251648","CLASSIFICATION_TYPE":"U","MEAN_MOTION":13.11418831,"ECCENTRICITY":0.0002597,"INCLINATION":87.8884,"RA_OF_ASC_NODE":16.0148,"ARG_OF_PERICENTER":99.9048,"MEAN_ANOMALY":260.2373,"EPHEMERIS_TYPE":0,"NORAD_CAT_ID":61603,"ELEMENT_SET_NO":999,"REV_AT_EPOCH":8777,"BSTAR":0.00018598,"MEAN_MOTION_DOT":7.9e-7,"MEAN_MOTION_DDOT":0},{"OBJECT_NAME":"ONEWEB-0698","OBJECT_ID":"2024-188L","EPOCH":"2026-07-12T12:47:46.301856","CLASSIFICATION_TYPE":"U","MEAN_MOTION":13.11416246,"ECCENTRICITY":0.0002408,"INCLINATION":87.8882,"RA_OF_ASC_NODE":16.0335,"ARG_OF_PERICENTER":119.1924,"MEAN_ANOMALY":240.9445,"EPHEMERIS_TYPE":0,"NORAD_CAT_ID":61604,"ELEMENT_SET_NO":999,"REV_AT_EPOCH":8779,"BSTAR":-0.0014234358,"MEAN_MOTION_DOT":-0.00000492,"MEAN_MOTION_DDOT":0},{"OBJECT_NAME":"ONEWEB-0699","OBJECT_ID":"2024-188M","EPOCH":"2026-07-12T13:34:56.885088","CLASSIFICATION_TYPE":"U","MEAN_MOTION":13.10370579,"ECCENTRICITY":0.0002415,"INCLINATION":87.8807,"RA_OF_ASC_NODE":31.2073,"ARG_OF_PERICENTER":100.6185,"MEAN_ANOMALY":259.5214,"EPHEMERIS_TYPE":0,"NORAD_CAT_ID":61605,"ELEMENT_SET_NO":999,"REV_AT_EPOCH":8663,"BSTAR":-0.00095216,"MEAN_MOTION_DOT":-0.0000032,"MEAN_MOTION_DDOT":0},{"OBJECT_NAME":"ONEWEB-0700","OBJECT_ID":"2024-188N","EPOCH":"2026-07-12T13:37:21.910080","CLASSIFICATION_TYPE":"U","MEAN_MOTION":13.10369315,"ECCENTRICITY":0.0002394,"INCLINATION":87.8835,"RA_OF_ASC_NODE":31.1216,"ARG_OF_PERICENTER":97.394,"MEAN_ANOMALY":262.7459,"EPHEMERIS_TYPE":0,"NORAD_CAT_ID":61606,"ELEMENT_SET_NO":999,"REV_AT_EPOCH":8662,"BSTAR":-0.0011903,"MEAN_MOTION_DOT":-0.00000403,"MEAN_MOTION_DDOT":0},{"OBJECT_NAME":"ONEWEB-0701","OBJECT_ID":"2024-188P","EPOCH":"2026-07-12T14:01:49.332000","CLASSIFICATION_TYPE":"U","MEAN_MOTION":13.1037424,"ECCENTRICITY":0.0002495,"INCLINATION":87.882,"RA_OF_ASC_NODE":31.205,"ARG_OF_PERICENTER":100.8391,"MEAN_ANOMALY":259.3017,"EPHEMERIS_TYPE":0,"NORAD_CAT_ID":61607,"ELEMENT_SET_NO":999,"REV_AT_EPOCH":8663,"BSTAR":-0.0017661,"MEAN_MOTION_DOT":-0.00000604,"MEAN_MOTION_DDOT":0},{"OBJECT_NAME":"ONEWEB-0702","OBJECT_ID":"2024-188Q","EPOCH":"2026-07-12T13:53:42.817920","CLASSIFICATION_TYPE":"U","MEAN_MOTION":13.11415812,"ECCENTRICITY":0.0003459,"INCLINATION":87.8893,"RA_OF_ASC_NODE":15.9334,"ARG_OF_PERICENTER":104.4215,"MEAN_ANOMALY":255.7297,"EPHEMERIS_TYPE":0,"NORAD_CAT_ID":61608,"ELEMENT_SET_NO":999,"REV_AT_EPOCH":8781,"BSTAR":0.0016223,"MEAN_MOTION_DOT":0.00000588,"MEAN_MOTION_DDOT":0},{"OBJECT_NAME":"ONEWEB-0704","OBJECT_ID":"2024-188R","EPOCH":"2026-07-12T13:44:42.076608","CLASSIFICATION_TYPE":"U","MEAN_MOTION":13.10370736,"ECCENTRICITY":0.0002836,"INCLINATION":87.8821,"RA_OF_ASC_NODE":31.1972,"ARG_OF_PERICENTER":91.903,"MEAN_ANOMALY":268.2422,"EPHEMERIS_TYPE":0,"NORAD_CAT_ID":61609,"ELEMENT_SET_NO":999,"REV_AT_EPOCH":8661,"BSTAR":-0.0016291,"MEAN_MOTION_DOT":-0.00000556,"MEAN_MOTION_DDOT":0},{"OBJECT_NAME":"ONEWEB-0705","OBJECT_ID":"2024-188S","EPOCH":"2026-07-12T13:52:02.678592","CLASSIFICATION_TYPE":"U","MEAN_MOTION":13.10372779,"ECCENTRICITY":0.0002744,"INCLINATION":87.8824,"RA_OF_ASC_NODE":31.2023,"ARG_OF_PERICENTER":75.7475,"MEAN_ANOMALY":284.3957,"EPHEMERIS_TYPE":0,"NORAD_CAT_ID":61610,"ELEMENT_SET_NO":999,"REV_AT_EPOCH":7878,"BSTAR":-0.0017749,"MEAN_MOTION_DOT":-0.00000607,"MEAN_MOTION_DDOT":0},{"OBJECT_NAME":"ONEWEB-0706","OBJECT_ID":"2024-188T","EPOCH":"2026-07-12T13:30:03.632256","CLASSIFICATION_TYPE":"U","MEAN_MOTION":13.10369773,"ECCENTRICITY":0.0002473,"INCLINATION":87.8826,"RA_OF_ASC_NODE":31.2103,"ARG_OF_PERICENTER":88.2665,"MEAN_ANOMALY":271.8745,"EPHEMERIS_TYPE":0,"NORAD_CAT_ID":61611,"ELEMENT_SET_NO":999,"REV_AT_EPOCH":8670,"BSTAR":-0.00051416,"MEAN_MOTION_DOT":-0.00000167,"MEAN_MOTION_DDOT":0},{"OBJECT_NAME":"ONEWEB-0707","OBJECT_ID":"2024-188U","EPOCH":"2026-07-12T13:39:48.301056","CLASSIFICATION_TYPE":"U","MEAN_MOTION":13.10369679,"ECCENTRICITY":0.0002387,"INCLINATION":87.8824,"RA_OF_ASC_NODE":31.203,"ARG_OF_PERICENTER":88.0336,"MEAN_ANOMALY":272.1065,"EPHEMERIS_TYPE":0,"NORAD_CAT_ID":61612,"ELEMENT_SET_NO":999,"REV_AT_EPOCH":8664,"BSTAR":-0.0013207,"MEAN_MOTION_DOT":-0.00000448,"MEAN_MOTION_DDOT":0},{"OBJECT_NAME":"ONEWEB-0708","OBJECT_ID":"2024-188V","EPOCH":"2026-07-12T14:06:41.516064","CLASSIFICATION_TYPE":"U","MEAN_MOTION":13.10374173,"ECCENTRICITY":0.0002096,"INCLINATION":87.8821,"RA_OF_ASC_NODE":31.2155,"ARG_OF_PERICENTER":71.8523,"MEAN_ANOMALY":288.2832,"EPHEMERIS_TYPE":0,"NORAD_CAT_ID":61613,"ELEMENT_SET_NO":999,"REV_AT_EPOCH":8662,"BSTAR":-0.00096169,"MEAN_MOTION_DOT":-0.00000323,"MEAN_MOTION_DDOT":0}]}
