ONEWEB-0697             
1 61603U 24188K   26193.55522283  .00000079  00000+0  18598-3 0  9991
2 61603  87.8884  16.0148 0002596  99.9048 260.2373 13.11418831 87775
ONEWEB-0698             
1 61604U 24188L   26193.53317479 -.00000492  00000+0 -14234-2 0  9992
2 61604  87.8882  16.0335 0002408 119.1924 240.9445 13.11416246 87797
ONEWEB-0699             
1 61605U 24188M   26193.56593617 -.00000320  00000+0 -95216-3 0  9996
2 61605  87.8807  31.2073 0002414 100.6185 259.5214 13.10370579 86633
ONEWEB-0700             
1 61606U 24188N   26193.56761470 -.00000403  00000+0 -11903-2 0  9993
2 61606  87.8835  31.1216 0002394  97.3940 262.7459 13.10369315 86623
ONEWEB-0701             
1 61607U 24188P   26193.58459876 -.00000604  00000+0 -17661-2 0  9990
2 61607  87.8820  31.2050 0002495 100.8391 259.3017 13.10374240 86633
ONEWEB-0702             
1 61608U 24188Q   26193.57896781  .00000588  00000+0  16223-2 0  9992
2 61608  87.8893  15.9334 0003459 104.4215 255.7297 13.11415813 87818
ONEWEB-0704             
1 61609U 24188R   26193.57270923 -.00000556  00000+0 -16291-2 0  9999
2 61609  87.8821  31.1972 0002836  91.9030 268.2422 13.10370736 86610
ONEWEB-0705             
1 61610U 24188S   26193.57780879 -.00000607  00000+0 -17749-2 0  9993
2 61610  87.8824  31.2023 0002743  75.7475 284.3957 13.10372779 78783
ONEWEB-0706             
1 61611U 24188T   26193.56254204 -.00000167  00000+0 -51416-3 0  9992
2 61611  87.8826  31.2103 0002473  88.2665 271.8745 13.10369773 86702
ONEWEB-0707             
1 61612U 24188U   26193.56930905 -.00000448  00000+0 -13207-2 0  9999
2 61612  87.8824  31.2030 0002387  88.0336 272.1065 13.10369679 86644
ONEWEB-0708             
1 61613U 24188V   26193.58798051 -.00000323  00000+0 -96169-3 0  9997
2 61613  87.8821  31.2155 0002096  71.8523 288.2832 13.10374173 86628
